{"type":"FeatureCollection","name":"takuyu_business_areas","crs":{"type":"name","properties":{"name":"urn:ogc:def:crs:OGC:1.3:CRS84"}},"features":[{"type":"Feature","properties":{"fid":1,"business_no":"B-22"},"geometry":{"type":"Polygon","coordinates":[[[141.62385264282773,42.66515107371163],[141.62530004795818,42.66563318042369],[141.62793302530238,42.666521348262336],[141.62907360223136,42.66467449802682],[141.62497236749468,42.66329732745479],[141.62385264282773,42.66515107371163]]]}},{"type":"Feature","properties":{"fid":2,"business_no":"B-21"},"geometry":{"type":"Polygon","coordinates":[[[141.62793302530238,42.666521348262336],[141.62695652009154,42.66808556137131],[141.6261756645191,42.66991565996521],[141.62173280546958,42.668964733107096],[141.62178881235386,42.66886413881995],[141.62223501553814,42.667843989216735],[141.62255415688352,42.66707008688061],[141.62417756807275,42.66744540862981],[141.62530004795818,42.66563318042369],[141.62793302530238,42.666521348262336]]]}},{"type":"Feature","properties":{"fid":3,"business_no":"B-20"},"geometry":{"type":"Polygon","coordinates":[[[141.62907360223136,42.66467449802682],[141.6347110433993,42.666560438049416],[141.63188044194916,42.671130569608856],[141.6261756645191,42.66991565996521],[141.62695652009154,42.66808556137131],[141.62907360223136,42.66467449802682]]]}},{"type":"Feature","properties":{"fid":4,"business_no":"B-18"},"geometry":{"type":"Polygon","coordinates":[[[141.6347110433993,42.666560438049416],[141.64033564369475,42.668463632373495],[141.63784666655755,42.6725492156877],[141.63188044194916,42.671130569608856],[141.6347110433993,42.666560438049416]]]}},{"type":"Feature","properties":{"fid":5,"business_no":"B-19"},"geometry":{"type":"Polygon","coordinates":[[[141.62907360223136,42.66467449802682],[141.6303482661607,42.66257348359928],[141.63600772607978,42.664470391610195],[141.6398588430159,42.66577512311821],[141.641623706793,42.66636819295832],[141.64033564369475,42.668463632373495],[141.6347110433993,42.666560438049416],[141.62907360223136,42.66467449802682]]]}},{"type":"Feature","properties":{"fid":6,"business_no":"B-17"},"geometry":{"type":"Polygon","coordinates":[[[141.641623706793,42.66636819295832],[141.64333553219296,42.66694268360603],[141.64812328364505,42.66854949902644],[141.64681604775367,42.67064102026729],[141.64033564369475,42.668463632373495],[141.641623706793,42.66636819295832]]]}},{"type":"Feature","properties":{"fid":7,"business_no":"B-16"},"geometry":{"type":"Polygon","coordinates":[[[141.64681604775367,42.67064102026729],[141.64562733458308,42.67248642174046],[141.64481161938687,42.67413954736487],[141.63784666655755,42.6725492156877],[141.64033564369475,42.668463632373495],[141.64681604775367,42.67064102026729]]]}},{"type":"Feature","properties":{"fid":8,"business_no":"B-28"},"geometry":{"type":"Polygon","coordinates":[[[141.63891763317412,42.659722885971384],[141.6399743155199,42.65802451365781],[141.6404152897606,42.65730156978248],[141.64428523906795,42.6586061212729],[141.642790537375,42.6610225901284],[141.63891763317412,42.659722885971384]]]}},{"type":"Feature","properties":{"fid":9,"business_no":"B-27"},"geometry":{"type":"Polygon","coordinates":[[[141.64428523906795,42.6586061212729],[141.64774679970836,42.65978023527005],[141.64625480781103,42.66220337752276],[141.642790537375,42.6610225901284],[141.64428523906795,42.6586061212729]]]}},{"type":"Feature","properties":{"fid":10,"business_no":"B-26"},"geometry":{"type":"Polygon","coordinates":[[[141.6398588430159,42.66577512311821],[141.642790537375,42.6610225901284],[141.64625480781103,42.66220337752276],[141.64333553219296,42.66694268360603],[141.641623706793,42.66636819295832],[141.6398588430159,42.66577512311821]]]}},{"type":"Feature","properties":{"fid":11,"business_no":"B-25"},"geometry":{"type":"Polygon","coordinates":[[[141.64774679970836,42.65978023527005],[141.65253948052953,42.661395246685295],[141.65108060527473,42.663825375283594],[141.64625480781103,42.66220337752276],[141.64774679970836,42.65978023527005]]]}},{"type":"Feature","properties":{"fid":12,"business_no":"B-24"},"geometry":{"type":"Polygon","coordinates":[[[141.65108060527473,42.663825375283594],[141.64812328364505,42.66854949902644],[141.64333553219296,42.666942683606024],[141.64625480781103,42.66220337752276],[141.65108060527473,42.663825375283594]]]}},{"type":"Feature","properties":{"fid":13,"business_no":"B-31"},"geometry":{"type":"Polygon","coordinates":[[[141.6397676633134,42.65410045532319],[141.6541273363924,42.65885863456068],[141.65253948052953,42.661395246685295],[141.64774679970836,42.65978023527005],[141.64428523906795,42.6586061212729],[141.6404152897606,42.65730156978248],[141.6382702168144,42.656583261457534],[141.6397676633134,42.65410045532319]]]}},{"type":"Feature","properties":{"fid":14,"business_no":"B-23"},"geometry":{"type":"Polygon","coordinates":[[[141.6593786686535,42.66369682916308],[141.65701419797955,42.662901126768546],[141.65253948052953,42.661395246685295],[141.65108060527473,42.663825375283594],[141.64812328364505,42.66854949902644],[141.65496369731665,42.67086106897038],[141.65648009094593,42.66841070991032],[141.65790584955374,42.66610507989261],[141.6593786686535,42.66369682916308]]]}},{"type":"Feature","properties":{"fid":15,"business_no":"B-30"},"geometry":{"type":"Polygon","coordinates":[[[141.6541273363924,42.65885863456068],[141.65852313494997,42.660410863767126],[141.65701419797955,42.662901126768546],[141.65253948052953,42.661395246685295],[141.6541273363924,42.65885863456068]]]}},{"type":"Feature","properties":{"fid":16,"business_no":"B-29"},"geometry":{"type":"Polygon","coordinates":[[[141.65852313494997,42.660410863767126],[141.66381211604116,42.66219627798437],[141.662897683765,42.663667479442914],[141.66228247530472,42.664658089976015],[141.6593786686535,42.66369682916308],[141.65701419797955,42.662901126768546],[141.65852313494997,42.660410863767126]]]}},{"type":"Feature","properties":{"fid":17,"business_no":"B-35"},"geometry":{"type":"Polygon","coordinates":[[[141.6285358925345,42.65031492244158],[141.62832380713238,42.65024953208368],[141.62917786791473,42.64897780663836],[141.62990294808918,42.64783682115687],[141.63582559816777,42.649798277643804],[141.63513886357956,42.65091615197032],[141.63654370641748,42.65162378680159],[141.63721649715626,42.65187248263828],[141.64165505662683,42.65336694770788],[141.6440768711143,42.65418248613945],[141.65151330035513,42.65669365231899],[141.65553871541007,42.65805366476808],[141.65633525781323,42.65832028012105],[141.65774532959472,42.659145755022685],[141.66141604797775,42.66037369275262],[141.66339956057027,42.66181693720364],[141.66378301643172,42.661942546592414],[141.66393639877631,42.66199637910993],[141.66381211604116,42.66219627798437],[141.65852313494997,42.660410863767126],[141.6541273363924,42.65885863456068],[141.6397676633134,42.65410045532319],[141.6354250256822,42.65264421257789],[141.6334510994861,42.651978252178665],[141.6315564789342,42.65133728259611],[141.6285358925345,42.65031492244158]]]}},{"type":"Feature","properties":{"fid":18,"business_no":"B-34"},"geometry":{"type":"Polygon","coordinates":[[[141.63582559816777,42.649798277643804],[141.6527783268252,42.655531084373386],[141.65151330035513,42.65669365231899],[141.64165505662683,42.65336694770788],[141.63721649715626,42.65187248263828],[141.63654370641748,42.65162378680159],[141.63513886357956,42.650916151970314],[141.63582559816777,42.649798277643804]]]}},{"type":"Feature","properties":{"fid":19,"business_no":"B-33"},"geometry":{"type":"Polygon","coordinates":[[[141.6527783268252,42.65553108437338],[141.66528770281528,42.659749219891225],[141.66393639877631,42.66199637910993],[141.66339956057027,42.66181693720364],[141.66141604797775,42.66037369275262],[141.65774532959472,42.659145755022685],[141.65633525781323,42.65832028012105],[141.65151330035513,42.65669365231899],[141.6527783268252,42.65553108437338]]]}},{"type":"Feature","properties":{"fid":20,"business_no":"B-32"},"geometry":{"type":"Polygon","coordinates":[[[141.66528770281528,42.659749219891225],[141.67924248339602,42.66444884344455],[141.67483078013532,42.66493892217946],[141.67319237781817,42.664946612171335],[141.67212562567144,42.66501339890966],[141.6685001249304,42.66375578692071],[141.66381211604116,42.66219627798437],[141.66528770281528,42.659749219891225]]]}},{"type":"Feature","properties":{"fid":21,"business_no":"B-12"},"geometry":{"type":"Polygon","coordinates":[[[141.66672184837856,42.674806815492076],[141.6655787806739,42.67666711415299],[141.66453473494195,42.678330379685455],[141.66045615896084,42.67633394313196],[141.65651004955,42.675103757734114],[141.65846881415135,42.672049252195755],[141.66672184837856,42.674806815492076]]]}},{"type":"Feature","properties":{"fid":22,"business_no":"B-13"},"geometry":{"type":"Polygon","coordinates":[[[141.64681604775367,42.67064102026729],[141.6512972285605,42.672154096833765],[141.65100310048504,42.672630498814335],[141.65235913984966,42.67311490649876],[141.65304558743628,42.67344343885329],[141.65651004955,42.675103757734114],[141.65846881415135,42.67204925219575],[141.65813069412638,42.67193627448628],[141.65784658819354,42.67183247118925],[141.65496369731665,42.67086106897038],[141.64812328364505,42.66854949902644],[141.64681604775367,42.67064102026729]]]}},{"type":"Feature","properties":{"fid":23,"business_no":"B-14"},"geometry":{"type":"Polygon","coordinates":[[[141.64481161938687,42.67413954736487],[141.64407649324178,42.67557276878945],[141.64523470424155,42.67606484215713],[141.64591272392389,42.67626346441788],[141.6519181656089,42.67726297325576],[141.65304558743628,42.67344343885329],[141.65235913984966,42.67311490649876],[141.65100310048504,42.672630498814335],[141.6512972285605,42.672154096833765],[141.64681604775367,42.67064102026729],[141.64562733458308,42.67248642174046],[141.64481161938687,42.67413954736487]]]}},{"type":"Feature","properties":{"fid":24,"business_no":"B-15"},"geometry":{"type":"Polygon","coordinates":[[[141.64407649324178,42.67557276878945],[141.63781091161437,42.68037768566346],[141.6444499269616,42.68680074639814],[141.65125278254038,42.68279682179866],[141.65216087573964,42.68179868329274],[141.65256350439412,42.67773292906611],[141.6519181656089,42.67726297325576],[141.64591272392389,42.67626346441788],[141.64523470424155,42.67606484215713],[141.64407649324178,42.67557276878945]]]}},{"type":"Feature","properties":{"fid":25,"business_no":"B-38"},"geometry":{"type":"Polygon","coordinates":[[[141.6527783268252,42.65553108437338],[141.65692618630905,42.648762659061454],[141.66953142626446,42.65300272568541],[141.66528770281528,42.659749219891225],[141.6527783268252,42.65553108437338]]]}},{"type":"Feature","properties":{"fid":26,"business_no":"B-7"},"geometry":{"type":"Polygon","coordinates":[[[141.68667364625415,42.650999065824685],[141.6904384856214,42.6499119603995],[141.6997529770929,42.63317737022853],[141.69960656667308,42.630881975095924],[141.70174694757253,42.630780026812374],[141.70157264945374,42.62822805939874],[141.6791718552188,42.62842298723354],[141.67968777765063,42.63655811508769],[141.67359431541558,42.646599889428046],[141.68667364625415,42.650999065824685]]]}},{"type":"Feature","properties":{"fid":27,"business_no":"B-8"},"geometry":{"type":"Polygon","coordinates":[[[141.6791718552188,42.62842298723354],[141.67858272757732,42.62835373662528],[141.6784990644803,42.62759453971987],[141.67370238024947,42.627861285633664],[141.67400914493862,42.62979002976499],[141.66455521497204,42.63040557382219],[141.65454353102518,42.63017987504136],[141.64885444042582,42.62976951152493],[141.64517326415563,42.629277071733966],[141.63683484214977,42.62849736743065],[141.63309789048154,42.62804595521207],[141.62989080509467,42.627081563596],[141.63008601898778,42.627779210089635],[141.63610976197532,42.63145198474894],[141.64012559063372,42.6339961261646],[141.64871500193078,42.63805832990554],[141.6658659368259,42.64369983964017],[141.67359431541558,42.64659988942804],[141.67968777765063,42.63655811508769],[141.6791718552188,42.62842298723354]]]}}]}