{
"type": "FeatureCollection",
"name": "takuyu_areas",
"crs": { "type": "name", "properties": { "name": "urn:ogc:def:crs:OGC:1.3:CRS84" } },
"features": [
{"type":"Feature","properties":{"fid":1,"area_no":"79","orientation":null},"geometry":{"type":"Polygon","coordinates":[[[141.679329680834485,42.684440137545138],[141.676492116616117,42.681482237711123],[141.677939018731053,42.68032835550266],[141.679186524441462,42.681271759166783],[141.680623201099792,42.682575962953017],[141.681428455810362,42.683399063066531],[141.679329680834485,42.684440137545138]]]}},
{"type":"Feature","properties":{"fid":2,"area_no":"80","orientation":null},"geometry":{"type":"Polygon","coordinates":[[[141.681428455810362,42.683399063066531],[141.680623201099792,42.682575962953017],[141.679186524441462,42.681271759166783],[141.677939018731053,42.68032835550266],[141.679810277296667,42.6789432926968],[141.683617981714036,42.682291257978207],[141.681428455810362,42.683399063066531]]]}},
{"type":"Feature","properties":{"fid":3,"area_no":"81","orientation":null},"geometry":{"type":"Polygon","coordinates":[[[141.679810277296667,42.6789432926968],[141.681241202135766,42.67790940869736],[141.682202769547388,42.677132056452443],[141.682460587840353,42.676919908514222],[141.682895808838765,42.676482944728569],[141.684811164686181,42.677946056549715],[141.684329929132872,42.678271657673299],[141.683552474882532,42.677659920820496],[141.681064813008646,42.679357687180122],[141.681775162699807,42.680002530241936],[141.681338926681775,42.680287395872156],[141.679810277296667,42.6789432926968]]]}},
{"type":"Feature","properties":{"fid":4,"area_no":"82","orientation":null},"geometry":{"type":"Polygon","coordinates":[[[141.681064813008646,42.679357687180122],[141.681775162699807,42.680002530241936],[141.682920870389637,42.679226380464904],[141.683947377370231,42.680022106629636],[141.685709694750983,42.678833558990753],[141.684811164686181,42.677946056549715],[141.684329929132872,42.678271657673299],[141.683552474882532,42.677659920820489],[141.681064813008646,42.679357687180122]]]}},
{"type":"Feature","properties":{"fid":5,"area_no":"83","orientation":null},"geometry":{"type":"Polygon","coordinates":[[[141.683617981714036,42.682291257978207],[141.685995979410535,42.681137475563382],[141.687227395616446,42.680483032115667],[141.685709694750983,42.678833558990753],[141.683947377370231,42.680022106629629],[141.682920870389637,42.679226380464904],[141.681775162699807,42.680002530241936],[141.681338926681775,42.680287395872156],[141.683617981714036,42.682291257978207]]]}},
{"type":"Feature","properties":{"fid":6,"area_no":"84","orientation":null},"geometry":{"type":"Polygon","coordinates":[[[141.684811164686181,42.677946056549715],[141.686342070111806,42.676895002707475],[141.685574150730218,42.676223936041893],[141.686733995771391,42.675423115531693],[141.68595945850808,42.674798165624289],[141.686498693311648,42.674370716451236],[141.684916284270003,42.673575999171021],[141.684053508584327,42.675003239268257],[141.682895808838765,42.676482944728569],[141.684811164686181,42.677946056549715]]]}},
{"type":"Feature","properties":{"fid":7,"area_no":"85","orientation":null},"geometry":{"type":"Polygon","coordinates":[[[141.687227395616446,42.680483032115667],[141.689453700035131,42.679394319897085],[141.691477301188911,42.678353520570028],[141.688137967114528,42.675654857181499],[141.686498693311648,42.674370716451236],[141.68595945850808,42.674798165624289],[141.686733995771391,42.675423115531686],[141.685574150730218,42.676223936041886],[141.686342070111806,42.676895002707475],[141.684811164686181,42.677946056549715],[141.685709694750983,42.678833558990753],[141.687227395616446,42.680483032115667]]]}},
{"type":"Feature","properties":{"fid":8,"area_no":"89","orientation":null},"geometry":{"type":"Polygon","coordinates":[[[141.691477301188911,42.67835352057002],[141.69277505961611,42.677613634269662],[141.693237206168988,42.677221109634182],[141.693655482986287,42.676750602651289],[141.69449342119006,42.675624703184688],[141.690122024382617,42.674258027000192],[141.68814911605466,42.675663867327529],[141.691477301188911,42.67835352057002]]]}},
{"type":"Feature","properties":{"fid":9,"area_no":"90","orientation":null},"geometry":{"type":"Polygon","coordinates":[[[141.690122024382617,42.674258027000192],[141.690558641169218,42.6738139949356],[141.691886792830843,42.671607483356141],[141.696395449406396,42.673189749687587],[141.69449342119006,42.675624703184681],[141.690122024382617,42.674258027000192]]]}},
{"type":"Feature","properties":{"fid":10,"area_no":"87","orientation":null},"geometry":{"type":"Polygon","coordinates":[[[141.686498693311648,42.674370716451236],[141.687195123230879,42.67381687827092],[141.68806704956782,42.672553964595075],[141.68955272315381,42.673162357720173],[141.690720753570019,42.673544675304996],[141.690122024382617,42.674258027000192],[141.688137967114528,42.675654857181492],[141.686498693311648,42.674370716451236]]]}},
{"type":"Feature","properties":{"fid":11,"area_no":"88","orientation":null},"geometry":{"type":"Polygon","coordinates":[[[141.68806704956782,42.672553964595075],[141.689293563639154,42.670716975280925],[141.691886792830843,42.671607483356141],[141.690720753570019,42.673544675304996],[141.68806704956782,42.672553964595075]]]}},
{"type":"Feature","properties":{"fid":12,"area_no":"999","orientation":null},"geometry":{"type":"Polygon","coordinates":[[[141.679329680834485,42.684440137545138],[141.681460933010868,42.686755699451481],[141.685679383219508,42.684653189223098],[141.688100819828236,42.683455601028847],[141.687373125184195,42.68266824728574],[141.684993955869146,42.683868813606097],[141.683617981714036,42.682291257978207],[141.679329680834485,42.684440137545138]]]}},
{"type":"Feature","properties":{"fid":13,"area_no":"49","orientation":"横"},"geometry":{"type":"Polygon","coordinates":[[[141.681460933010868,42.686755699451481],[141.683425272804129,42.688793839660086],[141.687493390885606,42.686755459223569],[141.685679383219508,42.684653189223098],[141.681460933010868,42.686755699451481]]]}},
{"type":"Feature","properties":{"fid":14,"area_no":"53","orientation":"横"},"geometry":{"type":"Polygon","coordinates":[[[141.683425272804129,42.688793839660086],[141.685431444145877,42.691039055588135],[141.686693362522561,42.690442047462177],[141.688074675110215,42.689782257128442],[141.6894647026038,42.689002670584777],[141.687493390885606,42.686755459223569],[141.683425272804129,42.688793839660086]]]}},
{"type":"Feature","properties":{"fid":15,"area_no":"52","orientation":"縦"},"geometry":{"type":"Polygon","coordinates":[[[141.6894647026038,42.689002670584777],[141.690754508679447,42.688253182102542],[141.688798012301277,42.686119973078625],[141.687493390885606,42.686755459223569],[141.6894647026038,42.689002670584777]]]}},
{"type":"Feature","properties":{"fid":16,"area_no":"51","orientation":"縦"},"geometry":{"type":"Polygon","coordinates":[[[141.690754508679447,42.688253182102542],[141.691912719675628,42.687585681328009],[141.690014613167108,42.685512667744327],[141.688798012301277,42.686119973078625],[141.690754508679447,42.688253182102542]]]}},
{"type":"Feature","properties":{"fid":17,"area_no":"50","orientation":"縦"},"geometry":{"type":"Polygon","coordinates":[[[141.691912719675628,42.687585681328009],[141.693150236315574,42.68691048610718],[141.69127304558134,42.684885497037861],[141.690014613167108,42.685512667744327],[141.691912719675628,42.687585681328009]]]}},
{"type":"Feature","properties":{"fid":18,"area_no":"43","orientation":"縦"},"geometry":{"type":"Polygon","coordinates":[[[141.693150236315574,42.68691048610718],[141.695143771043803,42.68571990815385],[141.694840492317923,42.685387426296089],[141.694387317210271,42.685637268320683],[141.693250893478876,42.684406626479714],[141.692431692322742,42.684840973442576],[141.693591646300177,42.68610363741152],[141.692827958085701,42.686562838385314],[141.693150236315574,42.68691048610718]]]}},
{"type":"Feature","properties":{"fid":19,"area_no":"44","orientation":"縦"},"geometry":{"type":"Polygon","coordinates":[[[141.69127304558134,42.684885497037861],[141.692473959616507,42.68428202343496],[141.692806211914785,42.684642400555518],[141.692431692322742,42.684840973442576],[141.693591646300177,42.68610363741152],[141.692827958085701,42.686562838385314],[141.69127304558134,42.684885497037861]]]}},
{"type":"Feature","properties":{"fid":20,"area_no":"42","orientation":"横"},"geometry":{"type":"Polygon","coordinates":[[[141.692473959616507,42.68428202343496],[141.69336767321812,42.68377752269172],[141.696018747597776,42.681994279930869],[141.698339527043146,42.683855360216519],[141.695143771043803,42.68571990815385],[141.694840492317923,42.685387426296089],[141.694387317210271,42.685637268320683],[141.693250893478876,42.684406626479714],[141.692806211914785,42.684642400555518],[141.692473959616507,42.68428202343496]]]}},
{"type":"Feature","properties":{"fid":21,"area_no":"48","orientation":"縦"},"geometry":{"type":"Polygon","coordinates":[[[141.688798012301277,42.686119973078625],[141.686889618071916,42.684054637116155],[141.685679383219508,42.684653189223098],[141.687493390885606,42.686755459223569],[141.688798012301277,42.686119973078625]]]}},
{"type":"Feature","properties":{"fid":22,"area_no":"47","orientation":"横"},"geometry":{"type":"Polygon","coordinates":[[[141.686889618071916,42.684054637116148],[141.688100819828236,42.683455601028847],[141.688712170477771,42.684079582993832],[141.689111748913973,42.683882907629837],[141.690097404773013,42.684943153444515],[141.690937957448597,42.684521940128626],[141.69127304558134,42.684885497037861],[141.688798012301277,42.686119973078625],[141.686889618071916,42.684054637116148]]]}},
{"type":"Feature","properties":{"fid":23,"area_no":"45","orientation":"横"},"geometry":{"type":"Polygon","coordinates":[[[141.687227395616446,42.680483032115667],[141.689060766714306,42.682472848757499],[141.687785012068474,42.683113903406159],[141.687373125184195,42.68266824728574],[141.684993955869146,42.683868813606097],[141.683617981714036,42.682291257978207],[141.687227395616446,42.680483032115667]]]}},
{"type":"Feature","properties":{"fid":24,"area_no":"46","orientation":"縦"},"geometry":{"type":"Polygon","coordinates":[[[141.689060766714306,42.682472848757499],[141.690937957448597,42.684521940128626],[141.690097404773013,42.684943153444515],[141.689111748913973,42.683882907629837],[141.688712170477771,42.684079582993832],[141.687785012068474,42.683113903406159],[141.689060766714306,42.682472848757499]]]}},
{"type":"Feature","properties":{"fid":25,"area_no":"41","orientation":"縦"},"geometry":{"type":"Polygon","coordinates":[[[141.690937957448597,42.684521940128626],[141.692143228936686,42.683925830319389],[141.691453008388208,42.683157701884326],[141.690581517796602,42.68223260382333],[141.690243379447054,42.68186230447872],[141.689060766714306,42.682472848757499],[141.690937957448597,42.684521940128626]]]}},
{"type":"Feature","properties":{"fid":26,"area_no":"40","orientation":"縦"},"geometry":{"type":"Polygon","coordinates":[[[141.690243379447054,42.68186230447872],[141.691157573077646,42.681415123435563],[141.691512269748415,42.681769088638546],[141.69302430592478,42.683399224525942],[141.69336767321812,42.68377752269172],[141.692473959616507,42.68428202343496],[141.69127304558134,42.684885497037861],[141.690937957448597,42.684521940128626],[141.692143228936686,42.683925830319389],[141.690243379447054,42.68186230447872]]]}},
{"type":"Feature","properties":{"fid":27,"area_no":"39","orientation":null},"geometry":{"type":"Polygon","coordinates":[[[141.691157573077646,42.681415123435563],[141.693735006502123,42.680153485356591],[141.696018747597776,42.681994279930862],[141.69336767321812,42.68377752269172],[141.691157573077646,42.681415123435563]]]}},
{"type":"Feature","properties":{"fid":28,"area_no":"38","orientation":null},"geometry":{"type":"Polygon","coordinates":[[[141.693735006502123,42.680153485356584],[141.691477301188911,42.678353520570013],[141.687227395616446,42.680483032115667],[141.689060766714306,42.682472848757499],[141.693735006502123,42.680153485356584]]]}},
{"type":"Feature","properties":{"fid":29,"area_no":"86","orientation":null},"geometry":{"type":"Polygon","coordinates":[[[141.684916284270003,42.673575999171014],[141.687108192043581,42.670042798197031],[141.689293563639154,42.670716975280925],[141.68806704956782,42.672553964595075],[141.687195123230879,42.67381687827092],[141.686498693311648,42.674370716451236],[141.684916284270003,42.673575999171014]]]}},
{"type":"Feature","properties":{"fid":30,"area_no":"32","orientation":null},"geometry":{"type":"Polygon","coordinates":[[[141.696395449406396,42.673189749687587],[141.698235095789812,42.673793077420363],[141.700403364388336,42.674239031846149],[141.698634526607862,42.676355442933492],[141.697937334134537,42.677167864237653],[141.697388987360114,42.676768769500711],[141.696753849911175,42.676457957248296],[141.695778472741921,42.676062702258101],[141.69449342119006,42.675624703184681],[141.696395449406396,42.673189749687587]]]}},
{"type":"Feature","properties":{"fid":31,"area_no":"37","orientation":null},"geometry":{"type":"Polygon","coordinates":[[[141.698339527043146,42.683855360216519],[141.699059378271073,42.683387212480348],[141.700000588109987,42.682729589483493],[141.700469450048331,42.682407982716725],[141.698191373641862,42.680566399560171],[141.696018747597776,42.681994279930862],[141.698339527043146,42.683855360216519]]]}},
{"type":"Feature","properties":{"fid":32,"area_no":"36","orientation":null},"geometry":{"type":"Polygon","coordinates":[[[141.700469450048331,42.682407982716725],[141.702658634414348,42.680939909967066],[141.702236832968026,42.680619575278307],[141.701410659887216,42.681178237904028],[141.699523011265825,42.679668812197065],[141.698191373641862,42.680566399560171],[141.700469450048331,42.682407982716725]]]}},
{"type":"Feature","properties":{"fid":33,"area_no":"35","orientation":null},"geometry":{"type":"Polygon","coordinates":[[[141.702236832968026,42.6806195752783],[141.700346569874853,42.679093478145859],[141.699523011265825,42.679668812197065],[141.701410659887216,42.681178237904028],[141.702236832968026,42.6806195752783]]]}},
{"type":"Feature","properties":{"fid":34,"area_no":"34","orientation":null},"geometry":{"type":"Polygon","coordinates":[[[141.694104666409658,42.680451451006874],[141.695800439203822,42.679616917027914],[141.697102446147596,42.680674672962354],[141.698252813728544,42.679909067044726],[141.698683906522973,42.680234410383903],[141.698191373641862,42.680566399560171],[141.696018747597776,42.681994279930862],[141.694104666409658,42.680451451006874]]]}},
{"type":"Feature","properties":{"fid":35,"area_no":"33","orientation":null},"geometry":{"type":"Polygon","coordinates":[[[141.697937334134537,42.677167864237653],[141.700346569874853,42.679093478145859],[141.698683906522973,42.680234410383903],[141.698252813728544,42.679909067044726],[141.697102446147596,42.680674672962354],[141.695800439203822,42.679616917027914],[141.694104666409658,42.680451451006874],[141.691477301188911,42.678353520570013],[141.69277505961611,42.677613634269662],[141.693237206168988,42.677221109634182],[141.693655482986287,42.676750602651289],[141.69449342119006,42.675624703184674],[141.695778472741921,42.676062702258101],[141.696753849911175,42.676457957248296],[141.697388987360114,42.676768769500711],[141.697937334134537,42.677167864237653]]]}},
{"type":"Feature","properties":{"fid":36,"area_no":"108","orientation":null},"geometry":{"type":"Polygon","coordinates":[[[141.676492116616117,42.681482237711123],[141.674803616380302,42.680008372110343],[141.675903437506918,42.679175485997497],[141.677919195245295,42.677669855846183],[141.679810277296667,42.6789432926968],[141.677939018731053,42.68032835550266],[141.676492116616117,42.681482237711123]]]}},
{"type":"Feature","properties":{"fid":37,"area_no":"107","orientation":null},"geometry":{"type":"Polygon","coordinates":[[[141.674803616380302,42.680008372110343],[141.673039719422832,42.678589255615989],[141.675880778751406,42.676440337612327],[141.67638060870982,42.676734345207578],[141.677919195245295,42.677669855846183],[141.674803616380302,42.680008372110343]]]}},
{"type":"Feature","properties":{"fid":38,"area_no":"113","orientation":null},"geometry":{"type":"Polygon","coordinates":[[[141.675880778751406,42.67644033761232],[141.676665972303596,42.675807170968355],[141.677527895969575,42.675112123045977],[141.679054747486049,42.676263500263353],[141.681218803584528,42.677925592421872],[141.679810277296667,42.6789432926968],[141.677919195245295,42.677669855846183],[141.675880778751406,42.67644033761232]]]}},
{"type":"Feature","properties":{"fid":39,"area_no":"115","orientation":null},"geometry":{"type":"Polygon","coordinates":[[[141.681218803584528,42.677925592421872],[141.682435120065321,42.676944671973999],[141.682895808838765,42.676482944728569],[141.68087964878481,42.674909652726626],[141.679054747486049,42.676263500263353],[141.681218803584528,42.677925592421872]]]}},
{"type":"Feature","properties":{"fid":40,"area_no":"114","orientation":null},"geometry":{"type":"Polygon","coordinates":[[[141.68087964878481,42.674909652726626],[141.679217716226646,42.673662139085401],[141.678707022739957,42.673358426272969],[141.677527895969575,42.675112123045977],[141.679054747486049,42.676263500263353],[141.68087964878481,42.674909652726626]]]}},
{"type":"Feature","properties":{"fid":41,"area_no":"117","orientation":null},"geometry":{"type":"Polygon","coordinates":[[[141.68087964878481,42.674909652726626],[141.681274434022725,42.674589286949612],[141.681549825049672,42.674145257251944],[141.684053508584327,42.675003239268257],[141.682895808838765,42.676482944728569],[141.68087964878481,42.674909652726626]]]}},
{"type":"Feature","properties":{"fid":42,"area_no":"118","orientation":null},"geometry":{"type":"Polygon","coordinates":[[[141.681549825049672,42.674145257251944],[141.682571212022964,42.672547236675143],[141.684916284270003,42.673575999171014],[141.684053508584327,42.675003239268257],[141.681549825049672,42.674145257251944]]]}},
{"type":"Feature","properties":{"fid":43,"area_no":"116","orientation":null},"geometry":{"type":"Polygon","coordinates":[[[141.678707022739957,42.673358426272962],[141.679938003200391,42.671375926852754],[141.682571212022935,42.672547236675143],[141.681549825049672,42.674145257251944],[141.681274434022725,42.674589286949612],[141.68087964878481,42.674909652726626],[141.679217716226646,42.673662139085401],[141.678707022739957,42.673358426272962]]]}},
{"type":"Feature","properties":{"fid":44,"area_no":"127","orientation":null},"geometry":{"type":"Polygon","coordinates":[[[141.679938003200391,42.671375926852754],[141.680951546758308,42.669734261823287],[141.684568232713474,42.670948534238093],[141.685156488862788,42.67115101746235],[141.684707671208173,42.671893663894664],[141.681594706814963,42.670848253536271],[141.680981177438468,42.671830548904389],[141.679938003200391,42.671375926852754]]]}},
{"type":"Feature","properties":{"fid":45,"area_no":"109","orientation":null},"geometry":{"type":"Polygon","coordinates":[[[141.673039719422832,42.678589255615989],[141.67024267036868,42.676403496539272],[141.670817854159111,42.675988312156029],[141.671162964433364,42.675498801079208],[141.671542934331313,42.674914458200597],[141.673714688885582,42.675646167384969],[141.67534046368678,42.676203171738571],[141.675880778751406,42.67644033761232],[141.673039719422832,42.678589255615989]]]}},
{"type":"Feature","properties":{"fid":46,"area_no":"91","orientation":null},"geometry":{"type":"Polygon","coordinates":[[[141.67024267036868,42.676403496539272],[141.669782523336238,42.676049821128565],[141.668705360965021,42.675491112392791],[141.666721848378558,42.674806815492076],[141.667480045193201,42.673548407140544],[141.669500160384587,42.67421862168473],[141.671542934331313,42.674914458200597],[141.670817854159111,42.675988312156029],[141.67024267036868,42.676403496539272]]]}},
{"type":"Feature","properties":{"fid":47,"area_no":"153","orientation":null},"geometry":{"type":"Polygon","coordinates":[[[141.654963697316646,42.670861068970382],[141.656480090945934,42.668410709910319],[141.659387383559476,42.669348829497892],[141.657846588193536,42.671832471189248],[141.654963697316646,42.670861068970382]]]}},
{"type":"Feature","properties":{"fid":48,"area_no":"152","orientation":null},"geometry":{"type":"Polygon","coordinates":[[[141.659387383559476,42.669348829497892],[141.660769567637772,42.667080401303508],[141.657905849553742,42.66610507989261],[141.656480090945934,42.668410709910319],[141.659387383559476,42.669348829497892]]]}},
{"type":"Feature","properties":{"fid":49,"area_no":"151","orientation":null},"geometry":{"type":"Polygon","coordinates":[[[141.657905849553742,42.66610507989261],[141.659378668653488,42.663696829163079],[141.662282475304721,42.664658089976015],[141.660769567637772,42.667080401303508],[141.657905849553742,42.66610507989261]]]}},
{"type":"Feature","properties":{"fid":50,"area_no":"148","orientation":null},"geometry":{"type":"Polygon","coordinates":[[[141.662282475304721,42.664658089976015],[141.666608554601368,42.666037152864298],[141.667316204961708,42.665468100881654],[141.667842585279089,42.664773440274764],[141.665775409595852,42.664062110022869],[141.665555793966774,42.664424825384508],[141.662962237966155,42.663563533156946],[141.662282475304721,42.664658089976015]]]}},
{"type":"Feature","properties":{"fid":51,"area_no":"150","orientation":null},"geometry":{"type":"Polygon","coordinates":[[[141.657846588193536,42.671832471189248],[141.658130694126385,42.671936274486278],[141.660975239417297,42.669934506269108],[141.663666402364157,42.668105689835805],[141.664611098165437,42.667436690985717],[141.662962237966155,42.666872778316716],[141.661961805339104,42.666551316432894],[141.661269391363362,42.666280145674442],[141.659387383559476,42.669348829497892],[141.659366071890531,42.669383182919205],[141.657846588193536,42.671832471189248]]]}},
{"type":"Feature","properties":{"fid":54,"area_no":"94","orientation":null},"geometry":{"type":"Polygon","coordinates":[[[141.667480045193201,42.673548407140544],[141.666391989189151,42.673156270613866],[141.665503068785711,42.672682115300056],[141.663742657790692,42.671331393576324],[141.664154001349914,42.670677167236789],[141.666263008581581,42.671394829456503],[141.666666508725541,42.670717535956605],[141.668784230863054,42.671444168429687],[141.667480045193201,42.673548407140544]]]}},
{"type":"Feature","properties":{"fid":55,"area_no":"92","orientation":null},"geometry":{"type":"Polygon","coordinates":[[[141.660975239417297,42.669934506269108],[141.662253280369526,42.670389459252135],[141.662940014955751,42.670753419241038],[141.663742657790692,42.671331393576324],[141.665503068785711,42.672682115300049],[141.667480045193201,42.673548407140544],[141.666721848378558,42.674806815492076],[141.658130694126385,42.671936274486278],[141.660975239417297,42.669934506269108]]]}},
{"type":"Feature","properties":{"fid":56,"area_no":"93","orientation":null},"geometry":{"type":"Polygon","coordinates":[[[141.662521791831296,42.668883532088515],[141.66348992551886,42.669144418034428],[141.664813719727448,42.669608347785108],[141.666905297147281,42.670308721360129],[141.666666508725541,42.670717535956605],[141.666263008581581,42.671394829456503],[141.664154001349914,42.670677167236789],[141.663742657790692,42.671331393576324],[141.662940014955751,42.670753419241038],[141.662253280369526,42.670389459252135],[141.660975239417297,42.669934506269108],[141.662521791831296,42.668883532088515]]]}},
{"type":"Feature","properties":{"fid":57,"area_no":"101","orientation":null},"geometry":{"type":"Polygon","coordinates":[[[141.669560728979803,42.670195624057264],[141.670474051119754,42.668715087694039],[141.669909325216395,42.66852156767554],[141.669575843908831,42.669039121576823],[141.66800773274548,42.668502343799737],[141.665605904675118,42.667678274734143],[141.664728565850595,42.667354386932104],[141.663666402364157,42.668105689835805],[141.664747875749953,42.668557674882443],[141.669560728979803,42.670195624057264]]]}},
{"type":"Feature","properties":{"fid":58,"area_no":"102","orientation":null},"geometry":{"type":"Polygon","coordinates":[[[141.664728565850595,42.667354386932104],[141.665605904675118,42.667678274734143],[141.666557234142061,42.668004677915484],[141.66800773274548,42.668502343799737],[141.669575843908831,42.669039121576823],[141.669909325216395,42.66852156767554],[141.670474051119754,42.668715087694039],[141.671228473987043,42.667524585423017],[141.666608554601368,42.666037152864298],[141.664728565850595,42.667354386932104]]]}},
{"type":"Feature","properties":{"fid":59,"area_no":"95","orientation":null},"geometry":{"type":"Polygon","coordinates":[[[141.668784230863054,42.671444168429687],[141.669560728979803,42.670195624057264],[141.667419912362647,42.669467049344199],[141.66607949885983,42.669010867958697],[141.664747875749953,42.668557674882443],[141.664734397192007,42.668552041748185],[141.663666402364157,42.668105689835805],[141.662521791831296,42.668883532088515],[141.66348992551886,42.669144418034421],[141.664813719727448,42.669608347785108],[141.665551960134053,42.669855551619271],[141.666905297147281,42.670308721360129],[141.666666508725541,42.670717535956605],[141.666722498625774,42.670736747311331],[141.668784230863054,42.671444168429687]]]}},
{"type":"Feature","properties":{"fid":60,"area_no":"96","orientation":null},"geometry":{"type":"Polygon","coordinates":[[[141.668784230863054,42.671444168429687],[141.66933153604549,42.671631598781488],[141.66890101969193,42.67235992925378],[141.670350018053284,42.672846474884352],[141.669500160384587,42.67421862168473],[141.667480045193201,42.673548407140544],[141.668784230863054,42.671444168429687]]]}},
{"type":"Feature","properties":{"fid":61,"area_no":"97","orientation":null},"geometry":{"type":"Polygon","coordinates":[[[141.670350018053284,42.672846474884352],[141.67238349610659,42.673529084721544],[141.671542934331313,42.674914458200597],[141.669500160384587,42.67421862168473],[141.670350018053284,42.672846474884352]]]}},
{"type":"Feature","properties":{"fid":62,"area_no":"98","orientation":null},"geometry":{"type":"Polygon","coordinates":[[[141.668784230863054,42.671444168429687],[141.66933153604549,42.671631598781488],[141.66890101969193,42.67235992925378],[141.670350018053284,42.672846474884352],[141.67238349610659,42.673529084721544],[141.67362130324716,42.671556415795173],[141.669560728979803,42.670195624057264],[141.668784230863054,42.671444168429687]]]}},
{"type":"Feature","properties":{"fid":63,"area_no":"99","orientation":null},"geometry":{"type":"Polygon","coordinates":[[[141.67362130324716,42.671556415795173],[141.673906083831923,42.671162924083518],[141.673329644394897,42.670961356336754],[141.673979195384476,42.669891260205496],[141.670474051119754,42.668715087694039],[141.669560728979803,42.670195624057264],[141.67362130324716,42.671556415795173]]]}},
{"type":"Feature","properties":{"fid":64,"area_no":"110","orientation":null},"geometry":{"type":"Polygon","coordinates":[[[141.673714688885582,42.675646167384969],[141.674419588631338,42.674523084512074],[141.674697303634048,42.673831088058243],[141.675665239187367,42.672242243588435],[141.67362130324716,42.671556415795173],[141.67238349610659,42.673529084721544],[141.671542934331313,42.674914458200597],[141.673714688885582,42.675646167384969]]]}},
{"type":"Feature","properties":{"fid":65,"area_no":"111","orientation":null},"geometry":{"type":"Polygon","coordinates":[[[141.674697303634048,42.673831088058243],[141.676785976091622,42.674534190565197],[141.676657866974352,42.674803298168264],[141.677527895969575,42.675112123045977],[141.675880778751406,42.67644033761232],[141.67534046368678,42.676203171738571],[141.673714688885582,42.675646167384969],[141.674419588631338,42.674523084512074],[141.674697303634048,42.673831088058243]]]}},
{"type":"Feature","properties":{"fid":66,"area_no":"112","orientation":null},"geometry":{"type":"Polygon","coordinates":[[[141.675665239187367,42.672242243588435],[141.676729656012242,42.672581844085521],[141.677774573234842,42.672940024485747],[141.678707022739957,42.673358426272962],[141.677527895969575,42.675112123045977],[141.676657866974352,42.674803298168264],[141.676785976091622,42.674534190565197],[141.674697303634048,42.673831088058243],[141.675665239187367,42.672242243588435]]]}},
{"type":"Feature","properties":{"fid":67,"area_no":"129","orientation":null},"geometry":{"type":"Polygon","coordinates":[[[141.687108192043581,42.670042798197031],[141.682925082647074,42.668655500524018],[141.682520711011364,42.669373186088627],[141.685018403054528,42.670207485141759],[141.684577376145739,42.670951681497357],[141.685156488862759,42.67115101746235],[141.686199913367119,42.671506903831812],[141.687108192043581,42.670042798197031]]]}},
{"type":"Feature","properties":{"fid":68,"area_no":"128","orientation":null},"geometry":{"type":"Polygon","coordinates":[[[141.682925082647074,42.668655500524018],[141.681829618970085,42.668284479469541],[141.680951546758308,42.669734261823287],[141.684568232713474,42.670948534238093],[141.685018403054528,42.670207485141759],[141.682520711011364,42.669373186088627],[141.682925082647074,42.668655500524018]]]}},
{"type":"Feature","properties":{"fid":69,"area_no":"122","orientation":null},"geometry":{"type":"Polygon","coordinates":[[[141.676724773127461,42.672580286213133],[141.677997729295242,42.670508129622021],[141.679938003200391,42.671375926852754],[141.678707022739957,42.673358426272962],[141.677774573234842,42.672940024485747],[141.676729656012242,42.672581844085521],[141.676724773127461,42.672580286213133]]]}},
{"type":"Feature","properties":{"fid":70,"area_no":"120","orientation":null},"geometry":{"type":"Polygon","coordinates":[[[141.673906083831923,42.671162924083518],[141.675112223937589,42.669222080324488],[141.676499636963683,42.669844923665877],[141.675511366629763,42.67143276147776],[141.674416774443358,42.671088028547899],[141.674291279797814,42.671280259042021],[141.673906083831923,42.671162924083518]]]}},
{"type":"Feature","properties":{"fid":71,"area_no":"121","orientation":null},"geometry":{"type":"Polygon","coordinates":[[[141.675511366629763,42.67143276147776],[141.677102565316943,42.67196531185779],[141.677997729295242,42.670508129622021],[141.676499636963683,42.669844923665877],[141.675511366629763,42.67143276147776]]]}},
{"type":"Feature","properties":{"fid":72,"area_no":"125","orientation":null},"geometry":{"type":"Polygon","coordinates":[[[141.677997729295242,42.670508129622021],[141.679801714825345,42.667605349810138],[141.681829618970085,42.668284479469541],[141.680951546758308,42.669734261823287],[141.679938003200391,42.671375926852754],[141.677997729295242,42.670508129622021]]]}},
{"type":"Feature","properties":{"fid":73,"area_no":"123","orientation":null},"geometry":{"type":"Polygon","coordinates":[[[141.675112223937589,42.669222080324481],[141.676107466196441,42.667650526560912],[141.678652218731656,42.668513043759795],[141.67798814289884,42.669619688342564],[141.678446523220998,42.669785991293175],[141.677997729295242,42.670508129622021],[141.676499636963683,42.669844923665877],[141.675112223937589,42.669222080324481]]]}},
{"type":"Feature","properties":{"fid":74,"area_no":"124","orientation":null},"geometry":{"type":"Polygon","coordinates":[[[141.676107466196441,42.667650526560912],[141.676792457803515,42.666583577508753],[141.679801714825345,42.667605349810138],[141.678446523220998,42.669785991293175],[141.67798814289884,42.669619688342564],[141.678652218731656,42.668513043759795],[141.676107466196441,42.667650526560912]]]}},
{"type":"Feature","properties":{"fid":75,"area_no":"106","orientation":null},"geometry":{"type":"Polygon","coordinates":[[[141.676792457803515,42.666583577508753],[141.673632432908732,42.665522377584004],[141.672947441301631,42.666627152963869],[141.675521824517119,42.667496733232547],[141.6750608059927,42.668262812476456],[141.67559885052205,42.668453669525121],[141.676792457803515,42.666583577508753]]]}},
{"type":"Feature","properties":{"fid":76,"area_no":"105","orientation":null},"geometry":{"type":"Polygon","coordinates":[[[141.673632432908732,42.665522377584004],[141.672655056207333,42.665194593872911],[141.671228473987043,42.667524585423017],[141.675112223937589,42.669222080324481],[141.67559885052205,42.668453669525121],[141.6750608059927,42.668262812476456],[141.675521824517119,42.667496733232547],[141.672947441301602,42.666627152963869],[141.673632432908732,42.665522377584004]]]}},
{"type":"Feature","properties":{"fid":77,"area_no":"104","orientation":null},"geometry":{"type":"Polygon","coordinates":[[[141.672125625671441,42.665013398909657],[141.672655056207333,42.665194593872911],[141.671228473987043,42.667524585423017],[141.669060743652892,42.666826665842002],[141.669853649692215,42.665517090763721],[141.671474622197564,42.666074607522951],[141.672125625671441,42.665013398909657]]]}},
{"type":"Feature","properties":{"fid":78,"area_no":"103","orientation":null},"geometry":{"type":"Polygon","coordinates":[[[141.668500124930404,42.66375578692071],[141.672125625671441,42.665013398909657],[141.671474622197564,42.666074607522951],[141.669853649692215,42.665517090763721],[141.669060743652892,42.666826665842002],[141.666608554601368,42.666037152864298],[141.667316204961708,42.665468100881654],[141.667842585279089,42.664773440274764],[141.668500124930404,42.66375578692071]]]}},
{"type":"Feature","properties":{"fid":79,"area_no":"147","orientation":null},"geometry":{"type":"Polygon","coordinates":[[[141.662962237966155,42.663563533156946],[141.663812116041157,42.662196277984371],[141.668500124930404,42.66375578692071],[141.667842585279089,42.664773440274764],[141.665775409595852,42.664062110022869],[141.665555793966774,42.664424825384508],[141.662962237966155,42.663563533156946]]]}},
{"type":"Feature","properties":{"fid":80,"area_no":"149","orientation":null},"geometry":{"type":"Polygon","coordinates":[[[141.661269391363362,42.666280145674442],[141.661961805339075,42.666551316432894],[141.662962237966155,42.666872778316716],[141.664611098165437,42.667436690985717],[141.666608554601368,42.666037152864298],[141.662282475304721,42.664658089976015],[141.661269391363362,42.666280145674442]]]}},
{"type":"Feature","properties":{"fid":81,"area_no":"141","orientation":null},"geometry":{"type":"Polygon","coordinates":[[[141.679242483396024,42.664448843444553],[141.68323826777069,42.665790102378971],[141.685315901347423,42.666302759401454],[141.686945588758675,42.663638178409812],[141.679242483396024,42.664448843444553]]]}},
{"type":"Feature","properties":{"fid":82,"area_no":"140","orientation":null},"geometry":{"type":"Polygon","coordinates":[[[141.685315901347423,42.666302759401454],[141.688929101351192,42.667078145114893],[141.688975290352744,42.666837199846306],[141.689191420020137,42.666534735314784],[141.68924109498397,42.666289943027422],[141.689897327401496,42.66528064527472],[141.690485583552601,42.664718635550422],[141.689261139267614,42.664298246391731],[141.689839809022232,42.663328008122335],[141.686945588758675,42.663638178409812],[141.685315901347423,42.666302759401454]]]}},
{"type":"Feature","properties":{"fid":83,"area_no":"55","orientation":null},"geometry":{"type":"Polygon","coordinates":[[[141.688929101351192,42.667078145114893],[141.687993774071032,42.668446741378773],[141.687693981306609,42.66880174164492],[141.687157143100592,42.669653990325266],[141.686550585646955,42.669452783795812],[141.686824233693528,42.668968347568985],[141.684214990854372,42.668077641479293],[141.685315901347423,42.666302759401454],[141.688929101351192,42.667078145114893]]]}},
{"type":"Feature","properties":{"fid":84,"area_no":"54","orientation":null},"geometry":{"type":"Polygon","coordinates":[[[141.672125625671441,42.665013398909657],[141.673192377818168,42.664946612171335],[141.674830780135323,42.664938922179466],[141.676556331512018,42.664767178780075],[141.679242483396024,42.664448843444553],[141.68323826777069,42.665790102378971],[141.685315901347423,42.666302759401454],[141.684214990854372,42.668077641479293],[141.686824233693528,42.668968347568985],[141.686550585646955,42.669452783795812],[141.687157143100592,42.669653990325266],[141.687313139917023,42.669712301649888],[141.687108192043581,42.670042798197031],[141.682925082647074,42.668655500524018],[141.681829618970085,42.668284479469541],[141.679801714825345,42.667605349810138],[141.676792457803515,42.666583577508753],[141.673632432908732,42.665522377584004],[141.672655056207333,42.665194593872911],[141.672125625671441,42.665013398909657]]]}},
{"type":"Feature","properties":{"fid":85,"area_no":"57","orientation":null},"geometry":{"type":"Polygon","coordinates":[[[141.687108192043581,42.670042798197031],[141.687313139917023,42.669712301649881],[141.687157143100592,42.669653990325266],[141.687693981306609,42.66880174164492],[141.687993774071032,42.668446741378773],[141.689412560758626,42.668919327026103],[141.690426975810368,42.669409530714731],[141.689504938761672,42.670469382729507],[141.689293563639154,42.670716975280925],[141.687108192043581,42.670042798197031]]]}},
{"type":"Feature","properties":{"fid":86,"area_no":"56","orientation":null},"geometry":{"type":"Polygon","coordinates":[[[141.690426975810368,42.669409530714731],[141.690938540789148,42.668844354356409],[141.691628761339814,42.667688354054285],[141.688929101351192,42.667078145114893],[141.687993774071032,42.668446741378773],[141.689412560758626,42.668919327026103],[141.690426975810368,42.669409530714731]]]}},
{"type":"Feature","properties":{"fid":87,"area_no":"139","orientation":null},"geometry":{"type":"Polygon","coordinates":[[[141.690485583552601,42.664718635550422],[141.692728146724448,42.665468407938555],[141.691376098079957,42.667631244383223],[141.688929101351192,42.667078145114893],[141.688975290352744,42.666837199846306],[141.689191420020137,42.666534735314784],[141.68924109498397,42.666289943027422],[141.689897327401496,42.66528064527472],[141.690485583552601,42.664718635550422]]]}},
{"type":"Feature","properties":{"fid":88,"area_no":"64","orientation":null},"geometry":{"type":"Polygon","coordinates":[[[141.696395449406396,42.673189749687587],[141.697457726179749,42.671793932048473],[141.699036867136556,42.672327043768604],[141.701184219960822,42.673054938925247],[141.700879198252807,42.673385564543487],[141.70023429521305,42.673183088598435],[141.699983305921904,42.67320102953159],[141.700019037036327,42.673413757344271],[141.700290942101674,42.673937884811764],[141.700176461805341,42.674192364248718],[141.698235095789812,42.673793077420363],[141.696395449406396,42.673189749687587]]]}},
{"type":"Feature","properties":{"fid":89,"area_no":"59","orientation":null},"geometry":{"type":"Polygon","coordinates":[[[141.689293563639154,42.670716975280925],[141.690426975810368,42.669409530714731],[141.694376135438631,42.670718083293742],[141.693491781696252,42.672170742193934],[141.691886792830843,42.671607483356141],[141.689293563639154,42.670716975280925]]]}},
{"type":"Feature","properties":{"fid":90,"area_no":"61","orientation":null},"geometry":{"type":"Polygon","coordinates":[[[141.694376135438631,42.670718083293742],[141.697457726179749,42.671793932048473],[141.696395449406396,42.673189749687587],[141.693491781696252,42.672170742193934],[141.694376135438631,42.670718083293742]]]}},
{"type":"Feature","properties":{"fid":91,"area_no":"58","orientation":null},"geometry":{"type":"Polygon","coordinates":[[[141.691628761339814,42.667688354054285],[141.693121188983014,42.668108800387955],[141.695547418797446,42.668805986897553],[141.694376135438631,42.670718083293742],[141.690426975810368,42.669409530714731],[141.690938540789148,42.668844354356409],[141.691628761339814,42.667688354054285]]]}},
{"type":"Feature","properties":{"fid":92,"area_no":"60","orientation":null},"geometry":{"type":"Polygon","coordinates":[[[141.695547418797446,42.668805986897553],[141.698946667860326,42.669764605580106],[141.697457726179749,42.671793932048473],[141.694376135438631,42.670718083293742],[141.695547418797446,42.668805986897553]]]}},
{"type":"Feature","properties":{"fid":93,"area_no":"62","orientation":null},"geometry":{"type":"Polygon","coordinates":[[[141.698946667860326,42.669764605580106],[141.700266104620027,42.670337462895922],[141.699036867136556,42.672327043768604],[141.697457726179749,42.671793932048473],[141.698946667860326,42.669764605580106]]]}},
{"type":"Feature","properties":{"fid":94,"area_no":"63","orientation":null},"geometry":{"type":"Polygon","coordinates":[[[141.700266104620027,42.670337462895922],[141.702482632010202,42.671239189847853],[141.701446429693647,42.672701404644364],[141.701184219960822,42.673054938925247],[141.699036867136556,42.672327043768604],[141.700266104620027,42.670337462895922]]]}},
{"type":"Feature","properties":{"fid":95,"area_no":"131","orientation":null},"geometry":{"type":"Polygon","coordinates":[[[141.695547418797446,42.668805986897553],[141.697284626360755,42.666032733862394],[141.698540444307099,42.666454392926262],[141.700588447203586,42.667165695807327],[141.699779703932165,42.668603656232001],[141.698946667860326,42.669764605580106],[141.695547418797446,42.668805986897553]]]}},
{"type":"Feature","properties":{"fid":96,"area_no":"135","orientation":null},"geometry":{"type":"Polygon","coordinates":[[[141.693883198571427,42.66685938799688],[141.696267807051214,42.66765598452082],[141.695547418797446,42.668805986897553],[141.693121188983014,42.668108800387955],[141.693883198571427,42.66685938799688]]]}},
{"type":"Feature","properties":{"fid":97,"area_no":"138","orientation":null},"geometry":{"type":"Polygon","coordinates":[[[141.692728146724448,42.665468407938548],[141.694367747341886,42.666021199075786],[141.693883198571427,42.666859387996872],[141.693121188983014,42.668108800387955],[141.691628761339814,42.667688354054285],[141.691376098079957,42.667631244383216],[141.692728146724448,42.665468407938548]]]}},
{"type":"Feature","properties":{"fid":98,"area_no":"134","orientation":null},"geometry":{"type":"Polygon","coordinates":[[[141.693883198571427,42.666859387996872],[141.694367747341886,42.666021199075786],[141.695046202769475,42.66526518526905],[141.697284626360755,42.666032733862394],[141.696267807051214,42.66765598452082],[141.693883198571427,42.666859387996872]]]}},
{"type":"Feature","properties":{"fid":99,"area_no":"133","orientation":null},"geometry":{"type":"Polygon","coordinates":[[[141.695046202769475,42.66526518526905],[141.695718993508223,42.664487854430178],[141.697143880629909,42.664966558083343],[141.697232772670532,42.664934516454601],[141.697835408416495,42.665137660101287],[141.697284626360755,42.666032733862394],[141.695046202769475,42.66526518526905]]]}},
{"type":"Feature","properties":{"fid":100,"area_no":"132","orientation":null},"geometry":{"type":"Polygon","coordinates":[[[141.697835408416495,42.665137660101287],[141.698087269198169,42.664751878855398],[141.696002663696703,42.664049520141333],[141.695718993508223,42.664487854430178],[141.697143880629909,42.664966558083343],[141.697232772670532,42.664934516454601],[141.697835408416495,42.665137660101287]]]}},
{"type":"Feature","properties":{"fid":101,"area_no":"130","orientation":null},"geometry":{"type":"Polygon","coordinates":[[[141.700588447203586,42.66716569580732],[141.701201105091599,42.665797071338794],[141.698087269198169,42.664751878855398],[141.697284626360755,42.666032733862394],[141.700588447203586,42.66716569580732]]]}},
{"type":"Feature","properties":{"fid":102,"area_no":"136","orientation":null},"geometry":{"type":"Polygon","coordinates":[[[141.695718993508223,42.664487854430178],[141.695040538080775,42.66426612431362],[141.694777347921331,42.664676260323922],[141.693055282507061,42.664077717176909],[141.694138545315724,42.66342021024704],[141.696002663696703,42.664049520141333],[141.695718993508223,42.664487854430178]]]}},
{"type":"Feature","properties":{"fid":103,"area_no":"137","orientation":null},"geometry":{"type":"Polygon","coordinates":[[[141.689839809022232,42.663328008122335],[141.691727130841514,42.663142081441144],[141.693576422939714,42.663761401964258],[141.693055282507061,42.664077717176909],[141.694777347921331,42.664676260323922],[141.695040538080775,42.66426612431362],[141.695718993508223,42.664487854430178],[141.695046202769475,42.66526518526905],[141.694367747341886,42.666021199075786],[141.692728146724448,42.665468407938548],[141.690485583552601,42.664718635550422],[141.689261139267614,42.664298246391731],[141.689839809022232,42.663328008122335]]]}},
{"type":"Feature","properties":{"fid":104,"area_no":"142","orientation":null},"geometry":{"type":"Polygon","coordinates":[[[141.691727130841514,42.663142081441144],[141.693288406241066,42.662963924547661],[141.694499778167085,42.662837035513682],[141.696526865289343,42.662605045802174],[141.697861988879765,42.662361519759386],[141.698656788301719,42.662123119656677],[141.699378382513771,42.661859084067466],[141.699864674265427,42.661659134040214],[141.699572724916436,42.662389717560536],[141.698795355306288,42.663643225072683],[141.698087269198169,42.664751878855398],[141.696002663696703,42.664049520141333],[141.694138545315724,42.66342021024704],[141.693576422939714,42.663761401964258],[141.691727130841514,42.663142081441144]]]}},
{"type":"Feature","properties":{"fid":105,"area_no":"145","orientation":null},"geometry":{"type":"Polygon","coordinates":[[[141.701225071083172,42.664451326690788],[141.701762345034524,42.663267688152729],[141.702105712328631,42.66245636685791],[141.700624178318435,42.66196162229356],[141.700160545322319,42.66179243412985],[141.699864674265427,42.661659134040214],[141.699572724916436,42.662389717560536],[141.698795355306288,42.663643225072683],[141.701225071083172,42.664451326690788]]]}},
{"type":"Feature","properties":{"fid":106,"area_no":"144","orientation":null},"geometry":{"type":"Polygon","coordinates":[[[141.701762345034524,42.663267688152722],[141.702251251257906,42.66343302721269],[141.703112283964998,42.66147584595042],[141.70130829843481,42.660861890999946],[141.70070609843421,42.661225906775314],[141.699864674265427,42.661659134040214],[141.700160545322319,42.66179243412985],[141.700624178318435,42.66196162229356],[141.702105712328631,42.66245636685791],[141.701762345034524,42.663267688152722]]]}},
{"type":"Feature","properties":{"fid":107,"area_no":"143","orientation":null},"geometry":{"type":"Polygon","coordinates":[[[141.703112283964998,42.66147584595042],[141.703851525861523,42.659849140475792],[141.702973063342512,42.659397955687069],[141.702105058710629,42.660251615052893],[141.70130829843481,42.660861890999946],[141.703112283964998,42.66147584595042]]]}},
{"type":"Feature","properties":{"fid":108,"area_no":"146","orientation":null},"geometry":{"type":"Polygon","coordinates":[[[141.701762345034524,42.663267688152722],[141.702251251257906,42.66343302721269],[141.703384406903012,42.663831473315213],[141.70215909112747,42.666490919488758],[141.701016613049745,42.666209213694621],[141.701201105091599,42.665797071338794],[141.698087269198169,42.664751878855398],[141.698795355306288,42.663643225072683],[141.701225071083172,42.664451326690781],[141.701762345034524,42.663267688152722]]]}},
{"type":"Feature","properties":{"fid":109,"area_no":"177","orientation":null},"geometry":{"type":"Polygon","coordinates":[[[141.630348266160695,42.662573483599282],[141.636007726079782,42.664470391610195],[141.63665785806316,42.663400183733003],[141.631013213484152,42.661496834386817],[141.630348266160695,42.662573483599282]]]}},
{"type":"Feature","properties":{"fid":110,"area_no":"175","orientation":null},"geometry":{"type":"Polygon","coordinates":[[[141.636007726079782,42.664470391610195],[141.639858843015901,42.665775123118209],[141.642790537374992,42.661022590128404],[141.638917633174117,42.659722885971384],[141.637500589467891,42.662041569949501],[141.6332381289713,42.660628451945058],[141.633010016308276,42.661002883278591],[141.634020945397566,42.661340943007723],[141.633837714500146,42.661646156492345],[141.635202468770785,42.662106937896304],[141.634808355398036,42.662776545980392],[141.63665785806316,42.663400183733003],[141.636007726079782,42.664470391610195]]]}},
{"type":"Feature","properties":{"fid":111,"area_no":"176","orientation":null},"geometry":{"type":"Polygon","coordinates":[[[141.631013213484152,42.661496834386817],[141.631855073398128,42.660149714888789],[141.6332381289713,42.660628451945051],[141.633010016308276,42.661002883278591],[141.634020945397566,42.661340943007723],[141.633837714500146,42.661646156492345],[141.635202468770785,42.662106937896304],[141.634808355398036,42.662776545980392],[141.631013213484152,42.661496834386817]]]}},
{"type":"Feature","properties":{"fid":112,"area_no":"173","orientation":null},"geometry":{"type":"Polygon","coordinates":[[[141.631855073398128,42.660149714888789],[141.632578410591407,42.658994834690425],[141.636036485269472,42.660163493851599],[141.635580259943396,42.6608992219413],[141.63417672434133,42.660440354224029],[141.633919435024694,42.660854325016132],[141.6332381289713,42.660628451945051],[141.631855073398128,42.660149714888789]]]}},
{"type":"Feature","properties":{"fid":113,"area_no":"172","orientation":null},"geometry":{"type":"Polygon","coordinates":[[[141.632578410591407,42.658994834690425],[141.633309591200202,42.657835126247626],[141.63675285053813,42.65899451424341],[141.636036485269472,42.660163493851599],[141.632578410591407,42.658994834690425]]]}},
{"type":"Feature","properties":{"fid":114,"area_no":"171","orientation":null},"geometry":{"type":"Polygon","coordinates":[[[141.63675285053813,42.65899451424341],[141.638917633174117,42.659722885971384],[141.638201155547108,42.660895256662208],[141.636036485269472,42.660163493851599],[141.63675285053813,42.65899451424341]]]}},
{"type":"Feature","properties":{"fid":115,"area_no":"174","orientation":null},"geometry":{"type":"Polygon","coordinates":[[[141.637500589467891,42.662041569949501],[141.633919435024694,42.660854325016132],[141.63417672434133,42.660440354224029],[141.635580259943396,42.6608992219413],[141.636036485269472,42.660163493851599],[141.638201155547108,42.660895256662208],[141.637500589467891,42.662041569949501]]]}},
{"type":"Feature","properties":{"fid":116,"area_no":"162","orientation":null},"geometry":{"type":"Polygon","coordinates":[[[141.633309591200202,42.657835126247626],[141.634351458205686,42.656129972676318],[141.636415147932922,42.656829857190743],[141.63580336153575,42.657813014989571],[141.634339257337416,42.657322078944418],[141.633890975943274,42.658030887196425],[141.633309591200202,42.657835126247626]]]}},
{"type":"Feature","properties":{"fid":117,"area_no":"161","orientation":null},"geometry":{"type":"Polygon","coordinates":[[[141.634351458205686,42.656129972676318],[141.63479591840877,42.655419825392741],[141.640415289760597,42.657301569782483],[141.639974315519908,42.658024513657807],[141.639349456763881,42.657814937708004],[141.638923297863272,42.658484040102948],[141.637391217398573,42.657963307298999],[141.637585124055789,42.657644776898906],[141.636198828959579,42.657177489589017],[141.636415147932922,42.656829857190743],[141.634351458205686,42.656129972676318]]]}},
{"type":"Feature","properties":{"fid":118,"area_no":"164","orientation":null},"geometry":{"type":"Polygon","coordinates":[[[141.639974315519908,42.658024513657807],[141.638917633174117,42.659722885971384],[141.635351541448102,42.658522678753883],[141.635596818264986,42.658136351299177],[141.636991638961035,42.658603888143276],[141.637391217398573,42.657963307298999],[141.638923297863272,42.658484040102948],[141.639349456763881,42.657814937708004],[141.639974315519908,42.658024513657807]]]}},
{"type":"Feature","properties":{"fid":119,"area_no":"163","orientation":null},"geometry":{"type":"Polygon","coordinates":[[[141.633890975943274,42.658030887196418],[141.635351541448102,42.658522678753883],[141.635596818264986,42.658136351299177],[141.636991638961035,42.658603888143276],[141.637391217398573,42.657963307298999],[141.637585124055789,42.657644776898906],[141.636198828959579,42.657177489589017],[141.63580336153575,42.657813014989571],[141.634339257337416,42.657322078944418],[141.633890975943274,42.658030887196418]]]}},
{"type":"Feature","properties":{"fid":120,"area_no":"178","orientation":null},"geometry":{"type":"Polygon","coordinates":[[[141.630348266160695,42.662573483599282],[141.62685239057879,42.661402786911019],[141.628361812288063,42.658977690774528],[141.631855073398128,42.660149714888789],[141.631013213484152,42.661496834386817],[141.630348266160695,42.662573483599282]]]}},
{"type":"Feature","properties":{"fid":121,"area_no":"179","orientation":null},"geometry":{"type":"Polygon","coordinates":[[[141.62685239057879,42.661402786911019],[141.624949055120965,42.66076063271187],[141.626434946584169,42.658328461620506],[141.628361812288063,42.658977690774528],[141.62685239057879,42.661402786911019]]]}},
{"type":"Feature","properties":{"fid":122,"area_no":"180","orientation":null},"geometry":{"type":"Polygon","coordinates":[[[141.624949055120965,42.66076063271187],[141.622188172918413,42.659827510598028],[141.623809145423735,42.657445934911458],[141.626434946584169,42.658328461620506],[141.624949055120965,42.66076063271187]]]}},
{"type":"Feature","properties":{"fid":123,"area_no":"169","orientation":null},"geometry":{"type":"Polygon","coordinates":[[[141.623809145423735,42.657445934911458],[141.625351248030256,42.655169060707429],[141.629808050929341,42.656657290243402],[141.628361812288063,42.658977690774528],[141.626434946584169,42.658328461620506],[141.623809145423735,42.657445934911458]]]}},
{"type":"Feature","properties":{"fid":124,"area_no":"170","orientation":null},"geometry":{"type":"Polygon","coordinates":[[[141.629808050929341,42.656657290243402],[141.633309591200202,42.657835126247626],[141.632578410591407,42.658994834690425],[141.631855073398128,42.660149714888789],[141.628361812288063,42.658977690774528],[141.629808050929341,42.656657290243402]]]}},
{"type":"Feature","properties":{"fid":125,"area_no":"165","orientation":null},"geometry":{"type":"Polygon","coordinates":[[[141.625351248030228,42.655169060707429],[141.626481353458416,42.653486748023994],[141.626931042605037,42.65364313980632],[141.627140200347668,42.653668777765901],[141.628924577339433,42.654305877666907],[141.627867983604716,42.656009461283872],[141.625351248030228,42.655169060707429]]]}},
{"type":"Feature","properties":{"fid":126,"area_no":"166","orientation":null},"geometry":{"type":"Polygon","coordinates":[[[141.626481353458416,42.653486748023994],[141.626944550709197,42.652776250077558],[141.631306361133483,42.654242103876193],[141.629808050929341,42.656657290243402],[141.627867983604716,42.656009461283872],[141.628924577339433,42.654305877666907],[141.627140200347668,42.653668777765901],[141.626931042605037,42.65364313980632],[141.626481353458416,42.653486748023994]]]}},
{"type":"Feature","properties":{"fid":127,"area_no":"167","orientation":null},"geometry":{"type":"Polygon","coordinates":[[[141.631306361133483,42.654242103876193],[141.63479591840877,42.655419825392741],[141.634351458205686,42.656129972676318],[141.633732590947915,42.655929042837087],[141.633321247387443,42.656593679093717],[141.630932491668602,42.655789320907466],[141.630286415678199,42.656818202238661],[141.629808050929341,42.656657290243402],[141.631306361133483,42.654242103876193]]]}},
{"type":"Feature","properties":{"fid":128,"area_no":"168","orientation":null},"geometry":{"type":"Polygon","coordinates":[[[141.633309591200202,42.657835126247626],[141.630286415678199,42.656818202238661],[141.630932491668602,42.655789320907466],[141.633321247387443,42.65659367909371],[141.633732590947915,42.655929042837087],[141.634351458205686,42.656129972676318],[141.633309591200202,42.657835126247626]]]}},
{"type":"Feature","properties":{"fid":129,"area_no":"184","orientation":null},"geometry":{"type":"Polygon","coordinates":[[[141.626944550709197,42.652776250077558],[141.628535892534501,42.650314922441581],[141.631556478934186,42.65133728259611],[141.630032941531965,42.653814155111199],[141.626944550709197,42.652776250077558]]]}},
{"type":"Feature","properties":{"fid":130,"area_no":"183","orientation":null},"geometry":{"type":"Polygon","coordinates":[[[141.631556478934186,42.65133728259611],[141.633451099486109,42.651978252178665],[141.633099017286014,42.652567297400367],[141.633754378212984,42.652787146363544],[141.633157407155863,42.65375690817136],[141.630595471611088,42.652899640121611],[141.631556478934186,42.65133728259611]]]}},
{"type":"Feature","properties":{"fid":131,"area_no":"182","orientation":null},"geometry":{"type":"Polygon","coordinates":[[[141.633451099486109,42.651978252178665],[141.635425025682196,42.65264421257789],[141.63495267778012,42.653386439153287],[141.634457671122618,42.653228123865283],[141.633879344436338,42.655110484904228],[141.631306361133483,42.654242103876193],[141.630032941531965,42.653814155111199],[141.630595471611088,42.652899640121611],[141.633157407155863,42.65375690817136],[141.633754378212984,42.652787146363536],[141.633099017286014,42.652567297400367],[141.633451099486109,42.651978252178665]]]}},
{"type":"Feature","properties":{"fid":132,"area_no":"181","orientation":null},"geometry":{"type":"Polygon","coordinates":[[[141.635425025682196,42.65264421257789],[141.639767663313393,42.654100455323189],[141.638270216814391,42.656583261457534],[141.63479591840877,42.655419825392741],[141.633879344436338,42.655110484904228],[141.634457671122618,42.653228123865283],[141.63495267778012,42.653386439153287],[141.635425025682196,42.65264421257789]]]}},
{"type":"Feature","properties":{"fid":133,"area_no":"160","orientation":null},"geometry":{"type":"Polygon","coordinates":[[[141.617525480366709,42.667915759083044],[141.617915908152924,42.668074677777867],[141.618362111337177,42.668256664816447],[141.618592184854037,42.668292549521716],[141.618804828559092,42.668336123778843],[141.620084176751476,42.668482225476922],[141.621788812353856,42.668864138819949],[141.622235015538138,42.667843989216735],[141.618756025085844,42.666939169151668],[141.618379541149096,42.66680844335086],[141.618163411481703,42.667131412476984],[141.61790022132223,42.667508848476203],[141.617525480366709,42.667915759083044]]]}},
{"type":"Feature","properties":{"fid":134,"area_no":"159","orientation":null},"geometry":{"type":"Polygon","coordinates":[[[141.618379541149096,42.66680844335086],[141.618675847951152,42.666295149679968],[141.618982612640337,42.66564663775852],[141.619378269370145,42.665758141277998],[141.622735251139233,42.666630937779303],[141.622235015538138,42.667843989216735],[141.618756025085844,42.666939169151668],[141.618379541149096,42.66680844335086]]]}},
{"type":"Feature","properties":{"fid":135,"area_no":"158","orientation":null},"geometry":{"type":"Polygon","coordinates":[[[141.618982612640337,42.66564663775852],[141.619851488762833,42.663818336009747],[141.625300047958177,42.665633180423697],[141.624177568072753,42.66744540862981],[141.622554156883524,42.667070086880607],[141.622735251139233,42.666630937779303],[141.618982612640337,42.66564663775852]]]}},
{"type":"Feature","properties":{"fid":136,"area_no":"156","orientation":null},"geometry":{"type":"Polygon","coordinates":[[[141.619851488762833,42.663818336009747],[141.620783983698686,42.661888724041084],[141.622746580516917,42.662552655740853],[141.621599288570764,42.664400511232934],[141.619851488762833,42.663818336009747]]]}},
{"type":"Feature","properties":{"fid":137,"area_no":"157","orientation":null},"geometry":{"type":"Polygon","coordinates":[[[141.622746580516917,42.662552655740853],[141.624972367494678,42.663297327454792],[141.623852642827728,42.665151073711627],[141.621599288570764,42.664400511232934],[141.622746580516917,42.662552655740853]]]}},
{"type":"Feature","properties":{"fid":138,"area_no":"155","orientation":null},"geometry":{"type":"Polygon","coordinates":[[[141.630348266160695,42.662573483599282],[141.629073602231358,42.66467449802682],[141.624972367494678,42.663297327454792],[141.622746580516917,42.662552655740853],[141.620783983698686,42.661888724041084],[141.621146523785939,42.661154930275366],[141.622271618143117,42.66152214867477],[141.622250702368859,42.661606743181913],[141.623373182254255,42.661977804092217],[141.623781039852446,42.661323799738881],[141.624855152009843,42.661688133243047],[141.625351569401118,42.660896434988167],[141.62685239057879,42.661402786911019],[141.630348266160695,42.662573483599282]]]}},
{"type":"Feature","properties":{"fid":139,"area_no":"154","orientation":null},"geometry":{"type":"Polygon","coordinates":[[[141.621146523785939,42.661154930275366],[141.62186136394601,42.659719921871634],[141.622188172918413,42.659827510598028],[141.624949055120965,42.66076063271187],[141.625351569401118,42.660896434988167],[141.624855152009843,42.661688133243047],[141.623781039852446,42.661323799738881],[141.623373182254255,42.661977804092217],[141.622250702368859,42.661606743181913],[141.622271618143117,42.66152214867477],[141.621146523785939,42.661154930275366]]]}},
{"type":"Feature","properties":{"fid":140,"area_no":"197","orientation":null},"geometry":{"type":"Polygon","coordinates":[[[141.60790008462601,42.656290443688683],[141.608551959590528,42.655223940605325],[141.612086725440889,42.656421191606142],[141.611454023269431,42.657496646889037],[141.60790008462601,42.656290443688683]]]}},
{"type":"Feature","properties":{"fid":141,"area_no":"187","orientation":null},"geometry":{"type":"Polygon","coordinates":[[[141.612086725440889,42.656421191606142],[141.61697753065593,42.65807089906513],[141.616342214012718,42.659138635107524],[141.611454023269431,42.657496646889037],[141.612086725440889,42.656421191606142]]]}},
{"type":"Feature","properties":{"fid":142,"area_no":"185","orientation":null},"geometry":{"type":"Polygon","coordinates":[[[141.61697753065593,42.65807089906513],[141.62186136394601,42.659719921871634],[141.621318614000813,42.660809470192568],[141.621077022411328,42.660735718661726],[141.616342214012718,42.659138635107524],[141.61697753065593,42.65807089906513]]]}},
{"type":"Feature","properties":{"fid":143,"area_no":"186","orientation":null},"geometry":{"type":"Polygon","coordinates":[[[141.621318614000785,42.660809470192568],[141.621146523785939,42.661154930275366],[141.620783983698686,42.661888724041084],[141.619851488762833,42.663818336009747],[141.619434380422888,42.664696028143396],[141.614458487093344,42.663020079271405],[141.616747736249522,42.659275422163333],[141.621318614000785,42.660809470192568]]]}},
{"type":"Feature","properties":{"fid":144,"area_no":"192","orientation":null},"geometry":{"type":"Polygon","coordinates":[[[141.614458487093344,42.663020079271405],[141.611814384630378,42.662140823459524],[141.611742922401618,42.66201136929422],[141.611136364948038,42.660925738111445],[141.611406527032244,42.660851396675817],[141.615029501247562,42.662086059540002],[141.614458487093344,42.663020079271405]]]}},
{"type":"Feature","properties":{"fid":145,"area_no":"195","orientation":null},"geometry":{"type":"Polygon","coordinates":[[[141.617525480366709,42.667915759083044],[141.616687760033557,42.667598160776677],[141.616377509382005,42.667589189502081],[141.616307790134471,42.667364907216417],[141.615927820235385,42.667020151725055],[141.615096418208395,42.666458798543815],[141.615448500408462,42.666201830384793],[141.616341778267582,42.666807402029171],[141.617025898384128,42.666497247553572],[141.617188867125236,42.666055723326913],[141.615682931378387,42.665700707378193],[141.615828470307633,42.665346330230513],[141.616262472623589,42.665461038425299],[141.617330920092172,42.665712242224288],[141.618780419474291,42.666074082364645],[141.618379541149096,42.66680844335086],[141.618163411481703,42.667131412476984],[141.61790022132223,42.667508848476203],[141.617525480366709,42.667915759083044]]]}},
{"type":"Feature","properties":{"fid":146,"area_no":"192","orientation":null},"geometry":{"type":"Polygon","coordinates":[[[141.615096418208395,42.666458798543815],[141.614091589553396,42.665704552327149],[141.613849315168153,42.665480904068822],[141.613775238467696,42.665394392349071],[141.61185273021681,42.662643256874645],[141.611805669724674,42.662404857852266],[141.611814384630378,42.662140823459524],[141.614458487093344,42.663020079271405],[141.61558870929187,42.663400757518637],[141.615158294040839,42.664102790098667],[141.615106004605167,42.66424954258629],[141.614651086514954,42.665468407938945],[141.615682931378387,42.665700707378193],[141.617188867125236,42.666055723326906],[141.617025898384128,42.666497247553572],[141.616341778267582,42.666807402029171],[141.615448500408462,42.666201830384793],[141.615096418208395,42.666458798543815]]]}},
{"type":"Feature","properties":{"fid":147,"area_no":"194","orientation":null},"geometry":{"type":"Polygon","coordinates":[[[141.614651086514954,42.665468407938945],[141.615682931378387,42.665700707378193],[141.615828470307633,42.665346330230513],[141.618780419474291,42.666074082364645],[141.618982612640337,42.66564663775852],[141.619092023442988,42.665416416918532],[141.617603696648388,42.665039693039454],[141.617685616764277,42.664805148210938],[141.617486916908746,42.664804507376871],[141.616191010395141,42.664491138721836],[141.615960501132946,42.665027196820887],[141.614910508855502,42.664773338700464],[141.614651086514954,42.665468407938945],[141.615682931378387,42.665700707378193],[141.614651086514954,42.665468407938945]]]}},
{"type":"Feature","properties":{"fid":148,"area_no":"193","orientation":null},"geometry":{"type":"Polygon","coordinates":[[[141.614910508855502,42.664773338700464],[141.615960501132946,42.665027196820887],[141.616191010395141,42.664491138721836],[141.617486916908746,42.664804507376871],[141.617685616764277,42.664805148210931],[141.617603696648388,42.665039693039454],[141.619092023442988,42.665416416918532],[141.619434380422888,42.664696028143396],[141.61558870929187,42.663400757518637],[141.615158294040839,42.664102790098667],[141.614910508855502,42.664773338700464]]]}},
{"type":"Feature","properties":{"fid":149,"area_no":"201","orientation":null},"geometry":{"type":"Polygon","coordinates":[[[141.605200642510937,42.656367354261704],[141.605503921237784,42.655357254491051],[141.605392370441706,42.655244450452543],[141.605451631802083,42.655000895580656],[141.606330094321152,42.655321362319185],[141.606676947577654,42.655444421107937],[141.606852988677673,42.655558506642492],[141.606976740342049,42.655694383522935],[141.607030772758918,42.655889225323946],[141.606396327606262,42.655781549667282],[141.605793256115078,42.656002028192894],[141.605634644826893,42.656075093578359],[141.60552222254023,42.65616225918906],[141.605200642510937,42.656367354261704]]]}},
{"type":"Feature","properties":{"fid":150,"area_no":"198","orientation":null},"geometry":{"type":"Polygon","coordinates":[[[141.611454023269431,42.657496646889037],[141.610964681301425,42.658283678658897],[141.607601599098189,42.657160168540663],[141.607420329054634,42.656885857225603],[141.607357581731861,42.656721782589649],[141.607161060602806,42.65616898888188],[141.607673061326977,42.656643590618657],[141.60790008462601,42.656290443688683],[141.611454023269431,42.657496646889037]]]}},
{"type":"Feature","properties":{"fid":151,"area_no":"199","orientation":null},"geometry":{"type":"Polygon","coordinates":[[[141.610964681301425,42.658283678658897],[141.610148530359993,42.659634363466346],[141.609006006190896,42.65904282160772],[141.608756759880947,42.658849271478672],[141.608650438028434,42.658726219427699],[141.607601599098189,42.657160168540663],[141.610964681301425,42.658283678658897]]]}},
{"type":"Feature","properties":{"fid":152,"area_no":"189","orientation":null},"geometry":{"type":"Polygon","coordinates":[[[141.610964681301425,42.658283678658897],[141.612667138177613,42.658828762820384],[141.612901569147454,42.65846537391031],[141.613837114300395,42.658779093385675],[141.616503878181334,42.659674325627044],[141.616039114292676,42.660434580140233],[141.610739888131121,42.658655701888812],[141.610964681301425,42.658283678658897]]]}},
{"type":"Feature","properties":{"fid":153,"area_no":"190","orientation":null},"geometry":{"type":"Polygon","coordinates":[[[141.616039114292676,42.660434580140233],[141.615533012314245,42.661262444371523],[141.614913405184353,42.661043658827069],[141.610242026425368,42.659479634121269],[141.610739888131121,42.658655701888804],[141.616039114292676,42.660434580140233]]]}},
{"type":"Feature","properties":{"fid":154,"area_no":"191","orientation":null},"geometry":{"type":"Polygon","coordinates":[[[141.615533012314245,42.661262444371523],[141.614913405184353,42.661043658827069],[141.610242026425368,42.659479634121269],[141.610148530359993,42.659634363466346],[141.610509068742601,42.65992801936985],[141.610777487845638,42.660274095953433],[141.611136364948038,42.660925738111445],[141.611406527032244,42.660851396675817],[141.615029501247562,42.662086059540002],[141.615533012314245,42.661262444371523]]]}},
{"type":"Feature","properties":{"fid":155,"area_no":"200","orientation":null},"geometry":{"type":"Polygon","coordinates":[[[141.595090875021612,42.66441132438635],[141.59716502263592,42.664154988604579],[141.597231255921116,42.664101157956125],[141.598486202376819,42.663183466397861],[141.599553778354817,42.661879321362143],[141.60137955114979,42.659932345339044],[141.601630540440937,42.659834930848966],[141.602090033856854,42.659433575131288],[141.603273300211129,42.658087852963043],[141.603369164176513,42.658011585422116],[141.603511217143335,42.657812904834152],[141.603817110341964,42.657291205042604],[141.603904259401418,42.657184813638722],[141.604034982990555,42.657092522152972],[141.604115160125247,42.657066885604834],[141.604242397751989,42.657066885604834],[141.604775749995667,42.656916911586521],[141.605134804120496,42.656719509335836],[141.605200642510937,42.656367354261697],[141.605503921237784,42.655357254491051],[141.605392370441706,42.655244450452543],[141.605451631802083,42.655000895580656],[141.606676947577654,42.655444421107937],[141.606852988677673,42.655558506642492],[141.606976740342049,42.655694383522935],[141.607030772758918,42.655889225323939],[141.607161060602806,42.65616898888188],[141.607673061326977,42.656643590618657],[141.60790008462601,42.656290443688683],[141.608551959590528,42.655223940605325],[141.604637182991269,42.653903895389384],[141.604523889213965,42.654790958928061],[141.604418438852065,42.655537005461078],[141.604392294134271,42.655710056213152],[141.604298173150056,42.656013855257555],[141.604193594278769,42.656256124317871],[141.604000123366802,42.656566329884868],[141.603838026116279,42.656766296289611],[141.59965835722619,42.660947497784989],[141.598539363303189,42.662154892371589],[141.595090875021612,42.66441132438635]]]}},
{"type":"Feature","properties":{"fid":156,"area_no":"202","orientation":null},"geometry":{"type":"Polygon","coordinates":[[[141.602412518634878,42.659066817894491],[141.602503882953471,42.659242750007145],[141.602671318083168,42.659537399134223],[141.603070460775456,42.660445851764962],[141.603230815044782,42.660648369201759],[141.605852258752321,42.659963908882943],[141.607623127639897,42.661320004587239],[141.608449300723237,42.660768853946131],[141.606989553977883,42.659626802997828],[141.607930804843022,42.658916708898715],[141.607479222755956,42.658366485053989],[141.607266579050957,42.657979379982926],[141.607251763710821,42.657833894507029],[141.607223767422397,42.657646372182143],[141.607160366134394,42.657425956544479],[141.607200345765818,42.65723208092659],[141.60731886848663,42.657173116982442],[141.607601599098189,42.657160168540663],[141.607420329054634,42.656885857225603],[141.607161060602806,42.65616898888188],[141.607030772758918,42.655889225323939],[141.606396327606262,42.655781549667282],[141.605793256115078,42.656002028192894],[141.605634644826893,42.656075093578359],[141.60552222254023,42.65616225918906],[141.605200642510937,42.65636735426169],[141.605134804120496,42.656719509335829],[141.604775749995667,42.656916911586521],[141.604242397751989,42.657066885604827],[141.604115160125247,42.657066885604827],[141.604034982990555,42.657092522152972],[141.603904259401418,42.657184813638722],[141.603817110341964,42.657291205042604],[141.603511217143335,42.657812904834145],[141.603369164176513,42.658011585422116],[141.603273300211129,42.658087852963043],[141.602412518634878,42.659066817894491]]]}}
]
}
