{
"type": "FeatureCollection",
"name": "takuyu_rural_areas",
"crs": { "type": "name", "properties": { "name": "urn:ogc:def:crs:OGC:1.3:CRS84" } },
"features": [
{"type":"Feature","properties":{"fid":1,"rural_no":"6"},"geometry":{"type":"Polygon","coordinates":[[[141.878806929055656,42.725685375379612],[141.875567308019839,42.726849686031677],[141.873027203434418,42.727718636778775],[141.871753665179284,42.728418568607751],[141.871200559148804,42.725666595996422],[141.870684636716987,42.724020817066958],[141.86973645495047,42.723037426246421],[141.868527987993076,42.722163287986632],[141.867784316019282,42.721883287970961],[141.866111054078317,42.72155548146889],[141.86797488196251,42.720749616455656],[141.870280265081249,42.720240823408716],[141.872427617905544,42.720179358194407],[141.874407644535694,42.720391071454003],[141.876887325773254,42.720766689975477],[141.876159921623866,42.721945605156947],[141.875681182790771,42.722563651667485],[141.87523381761909,42.72297767109351],[141.878806929055656,42.725685375379612]]]}},
{"type":"Feature","properties":{"fid":2,"rural_no":"7"},"geometry":{"type":"Polygon","coordinates":[[[141.87523381761909,42.72297767109351],[141.878806929055656,42.725685375379612],[141.882384688441817,42.724485190647137],[141.883142304265164,42.725127113107852],[141.884262460175648,42.725704154757025],[141.885061907547453,42.725830488603059],[141.886570167269326,42.725012728474866],[141.886291290279104,42.724842004749725],[141.885961285840722,42.724534700860545],[141.885106063070907,42.723568390934517],[141.884921307064928,42.722749747338973],[141.884767924720308,42.722254629181833],[141.884540175178358,42.721749263126043],[141.884293833837063,42.721387309231879],[141.882360286705278,42.72009655079556],[141.878818548930155,42.718904794959165],[141.877888958962956,42.719374329002669],[141.877493883226862,42.719744831539892],[141.876887325773254,42.72076668997547],[141.876163891908362,42.72193917051608],[141.875681182790771,42.722563651667485],[141.87523381761909,42.72297767109351]]]}},
{"type":"Feature","properties":{"fid":3,"rural_no":"10"},"geometry":{"type":"Polygon","coordinates":[[[141.878556048700602,42.699557277322683],[141.894772745678608,42.699772476793008],[141.894563587935977,42.711559486119675],[141.878644359747454,42.711501427519586],[141.878556048700602,42.699557277322683]]]}}
]
}